{
  "norad_id": 55480,
  "name": "STARLINK-5690",
  "history": [
    {
      "epoch": "2026-03-28T16:13:10.390080",
      "apogee_km": 486.5545123296324,
      "perigee_km": 484.5420798008254,
      "latitude_deg": 18.79747335428499,
      "longitude_deg": 152.87821120000444,
      "semi_major_axis_km": 6863.685296065229,
      "eccentricity": 0.0001466,
      "inclination_deg": 43.0007,
      "raan_deg": 232.0228,
      "arg_perigee_deg": 266.4247,
      "mean_anomaly_deg": 93.6437,
      "mean_motion_rev_day": 15.26745744
    }
  ]
}